$$SOE
2460728.500000000, A.D. 2025-Feb-22 00:00:00.0000, -8.813245911963478E+06, -2.849782138410702E+08, 2.131378024537341E+07,
2460735.500000000, A.D. 2025-Mar-01 00:00:00.0000, 4.990645726896843E+06, -2.833301846421577E+08, 2.007353703364433E+07,
2460742.500000000, A.D. 2025-Mar-08 00:00:00.0000, 1.878388717333793E+07, -2.810824245826931E+08, 1.879080676502287E+07,
2460749.500000000, A.D. 2025-Mar-15 00:00:00.0000, 3.253654167940633E+07, -2.782285742166475E+08, 1.746756138186581E+07,
2460756.500000000, A.D. 2025-Mar-22 00:00:00.0000, 4.621770032215008E+07, -2.747640409829863E+08, 1.610597980947085E+07,
2460763.500000000, A.D. 2025-Mar-29 00:00:00.0000, 5.979560415134996E+07, -2.706861368577612E+08, 1.470844771668851E+07,
2460770.500000000, A.D. 2025-Apr-05 00:00:00.0000, 7.323778727529010E+07, -2.659942064452966E+08, 1.327755500366560E+07,
2460777.500000000, A.D. 2025-Apr-12 00:00:00.0000, 8.651123851133998E+07, -2.606897424032479E+08, 1.181609102141415E+07,
2460784.500000000, A.D. 2025-Apr-19 00:00:00.0000, 9.958258045574872E+07, -2.547764860177134E+08, 1.032703732462247E+07,
2460791.500000000, A.D. 2025-Apr-26 00:00:00.0000, 1.124182647409325E+08, -2.482605100999300E+08, 8.813557819260985E+06,
2460798.500000000, A.D. 2025-May-03 00:00:00.0000, 1.249847815293226E+08, -2.411502812953394E+08, 7.278986254931331E+06,
2460805.500000000, A.D. 2025-May-10 00:00:00.0000, 1.372488806537890E+08, -2.334566991602911E+08, 5.726811081562907E+06,
2460812.500000000, A.D. 2025-May-17 00:00:00.0000, 1.491778013072625E+08, -2.251931097807115E+08, 4.160657753569365E+06,
2460819.500000000, A.D. 2025-May-24 00:00:00.0000, 1.607395068743254E+08, -2.163752922112155E+08, 2.584268624447837E+06,
2460826.500000000, A.D. 2025-May-31 00:00:00.0000, 1.719029213782783E+08, -2.070214162514715E+08, 1.001480657000616E+06,
2460833.500000000, A.D. 2025-Jun-07 00:00:00.0000, 1.826381629357902E+08, -1.971519698652835E+08, -5.837986088284999E+05,
2460840.500000000, A.D. 2025-Jun-14 00:00:00.0000, 1.929167675110361E+08, -1.867896571450656E+08, -2.167616301722452E+06,
2460847.500000000, A.D. 2025-Jun-21 00:00:00.0000, 2.027118998561984E+08, -1.759592710690303E+08, -3.746000640521109E+06,
2460854.500000000, A.D. 2025-Jun-28 00:00:00.0000, 2.119985506249619E+08, -1.646875409988593E+08, -5.314988216852546E+06,
2460861.500000000, A.D. 2025-Jul-05 00:00:00.0000, 2.207537143628129E+08, -1.530029551890703E+08, -6.870651338236988E+06,
2460868.500000000, A.D. 2025-Jul-12 00:00:00.0000, 2.289565439054461E+08, -1.409355622038853E+08, -8.409124892219774E+06,
2460875.500000000, A.D. 2025-Jul-19 00:00:00.0000, 2.365884786955202E+08, -1.285167554709274E+08, -9.926632309329964E+06,
2460882.500000000, A.D. 2025-Jul-26 00:00:00.0000, 2.436333452188484E+08, -1.157790450979457E+08, -1.141951019092375E+07,
2460889.500000000, A.D. 2025-Aug-02 00:00:00.0000, 2.500774283492141E+08, -1.027558212492815E+08, -1.288423119255810E+07,
2460896.500000000, A.D. 2025-Aug-09 00:00:00.0000, 2.559095131194108E+08, -8.948111350611357E+07, -1.431742480897497E+07,
2460903.500000000, A.D. 2025-Aug-16 00:00:00.0000, 2.611208972541006E+08, -7.598935062721288E+07, -1.571589578183012E+07,
2460910.500000000, A.D. 2025-Aug-23 00:00:00.0000, 2.657053757313386E+08, -6.231512484654130E+07, -1.707663993720699E+07,
2460917.500000000, A.D. 2025-Aug-30 00:00:00.0000, 2.696591993286039E+08, -4.849296381257301E+07, -1.839685728083455E+07,
2460924.500000000, A.D. 2025-Sep-06 00:00:00.0000, 2.729810079351929E+08, -3.455711256624527E+07, -1.967396207064959E+07,
2460931.500000000, A.D. 2025-Sep-13 00:00:00.0000, 2.756717395923845E+08, -2.054133094554229E+07, -2.090558992128387E+07,
2460938.500000000, A.D. 2025-Sep-20 00:00:00.0000, 2.777345214577603E+08, -6.478710395956594E+06, -2.208960244385761E+07,
2460945.500000000, A.D. 2025-Sep-27 00:00:00.0000, 2.791745468706966E+08, 7.598491189510820E+06, -2.322408938731080E+07,
2460952.500000000, A.D. 2025-Oct-04 00:00:00.0000, 2.799989397132722E+08, 2.165899599056899E+07, -2.430736822409076E+07,
2460959.500000000, A.D. 2025-Oct-11 00:00:00.0000, 2.802166088869749E+08, 3.567263260431623E+07, -2.533798143574452E+07,
2460966.500000000, A.D. 2025-Oct-18 00:00:00.0000, 2.798380962723867E+08, 4.961044185564105E+07, -2.631469179097341E+07,
2460973.500000000, A.D. 2025-Oct-25 00:00:00.0000, 2.788754212044961E+08, 6.344476244509871E+07, -2.723647589202682E+07,
2460980.500000000, A.D. 2025-Nov-01 00:00:00.0000, 2.773419241411726E+08, 7.714929718775658E+07, -2.810251626346930E+07,
2460987.500000000, A.D. 2025-Nov-08 00:00:00.0000, 2.752521118983793E+08, 9.069916085884392E+07, -2.891219225796719E+07,
2460994.500000000, A.D. 2025-Nov-15 00:00:00.0000, 2.726215066176738E+08, 1.040709108754041E+08, -2.966507005626022E+07,
2461001.500000000, A.D. 2025-Nov-22 00:00:00.0000, 2.694665005562048E+08, 1.172425624907343E+08, -3.036089202383577E+07,
2461008.500000000, A.D. 2025-Nov-29 00:00:00.0000, 2.658042178976137E+08, 1.301935911998239E+08, -3.099956553992604E+07,
2461015.500000000, A.D. 2025-Dec-06 00:00:00.0000, 2.616523823505561E+08, 1.429049238510569E+08, -3.158115130074244E+07,
2461022.500000000, A.D. 2025-Dec-13 00:00:00.0000, 2.570291917524568E+08, 1.553589167293459E+08, -3.210585159375149E+07,
2461029.500000000, A.D. 2025-Dec-20 00:00:00.0000, 2.519532036860953E+08, 1.675393232137949E+08, -3.257399893730085E+07,
2461036.500000000, A.D. 2025-Dec-27 00:00:00.0000, 2.464432313059185E+08, 1.794312551160604E+08, -3.298604490619978E+07,
2461043.500000000, A.D. 2026-Jan-03 00:00:00.0000, 2.405182479941073E+08, 1.910211385117894E+08, -3.334254916854791E+07,
2461050.500000000, A.D. 2026-Jan-10 00:00:00.0000, 2.341973008727423E+08, 2.022966647039042E+08, -3.364416888755819E+07,
2461057.500000000, A.D. 2026-Jan-17 00:00:00.0000, 2.274994331848327E+08, 2.132467374230115E+08, -3.389164858571960E+07,
2461064.500000000, A.D. 2026-Jan-24 00:00:00.0000, 2.204436152939084E+08, 2.238614173594136E+08, -3.408581052726069E+07,
2461071.500000000, A.D. 2026-Jan-31 00:00:00.0000, 2.130486839148524E+08, 2.341318649658947E+08, -3.422754565654391E+07,
2461078.500000000, A.D. 2026-Feb-07 00:00:00.0000, 2.053332891672001E+08, 2.440502822986183E+08, -3.431780512391675E+07,
2461085.500000000, A.D. 2026-Feb-14 00:00:00.0000, 1.973158491948220E+08, 2.536098545900380E+08, -3.435759243330395E+07,
2461092.500000000, A.D. 2026-Feb-21 00:00:00.0000, 1.890145122106069E+08, 2.628046927307739E+08, -3.434795620076922E+07,
2461099.500000000, A.D. 2026-Feb-28 00:00:00.0000, 1.804471243423713E+08, 2.716297783050479E+08, -3.428998332227118E+07,
2461106.500000000, A.D. 2026-Mar-07 00:00:00.0000, 1.716312006743203E+08, 2.800809096297228E+08, -3.418479250414123E+07,
2461113.500000000, A.D. 2026-Mar-14 00:00:00.0000, 1.625839017345833E+08, 2.881546467998536E+08, -3.403352858332086E+07,
2461120.500000000, A.D. 2026-Mar-21 00:00:00.0000, 1.533220167164715E+08, 2.958482588919542E+08, -3.383735754385751E+07,
2461127.500000000, A.D. 2026-Mar-28 00:00:00.0000, 1.438619509436506E+08, 3.031596745319728E+08, -3.359746193504766E+07,
2461134.500000000, A.D. 2026-Apr-04 00:00:00.0000, 1.342197165202988E+08, 3.100874349862040E+08, -3.331503668586628E+07,
2461141.500000000, A.D. 2026-Apr-11 00:00:00.0000, 1.244109260132098E+08, 3.166306494901080E+08, -3.299128533965698E+07,
2461148.500000000, A.D. 2026-Apr-18 00:00:00.0000, 1.144507889241534E+08, 3.227889528445733E+08, -3.262741669275977E+07,
2461155.500000000, A.D. 2026-Apr-25 00:00:00.0000, 1.043541106264452E+08, 3.285624653049369E+08, -3.222464180982737E+07,
2461162.500000000, A.D. 2026-May-02 00:00:00.0000, 9.413529345984900E+07, 3.339517547246290E+08, -3.178417139356798E+07,
2461169.500000000, A.D. 2026-May-09 00:00:00.0000, 8.380833980882134E+07, 3.389578008583000E+08, -3.130721350045085E+07,
2461176.500000000, A.D. 2026-May-16 00:00:00.0000, 7.338685727457671E+07, 3.435819619126244E+08, -3.079497160126895E+07,
2461183.500000000, A.D. 2026-May-23 00:00:00.0000, 6.288406575279582E+07, 3.478259443000277E+08, -3.024864288396244E+07,
2461190.500000000, A.D. 2026-May-30 00:00:00.0000, 5.231280412414468E+07, 3.516917758307447E+08, -2.966941655839807E+07,
2461197.500000000, A.D. 2026-Jun-06 00:00:00.0000, 4.168553604119979E+07, 3.551817789709821E+08, -2.905847237680921E+07,
2461204.500000000, A.D. 2026-Jun-13 00:00:00.0000, 3.101435829643201E+07, 3.582985442763765E+08, -2.841697966855632E+07,
2461211.500000000, A.D. 2026-Jun-20 00:00:00.0000, 2.031101111877140E+07, 3.610449068375626E+08, -2.774609658639018E+07,
2461218.500000000, A.D. 2026-Jun-27 00:00:00.0000, 9.586888566383997E+06, 3.634239252987089E+08, -2.704696941816749E+07,
2461225.500000000, A.D. 2026-Jul-04 00:00:00.0000, -1.146951104701681E+06, 3.654388625760037E+08, -2.632073201042302E+07,
2461232.500000000, A.D. 2026-Jul-11 00:00:00.0000, -1.187977494674550E+07, 3.670931680495156E+08, -2.556850532275452E+07,
2461239.500000000, A.D. 2026-Jul-18 00:00:00.0000, -2.260116469873102E+07, 3.683904611620092E+08, -2.479139710571048E+07,
2461246.500000000, A.D. 2026-Jul-25 00:00:00.0000, -3.330100609036157E+07, 3.693345163379564E+08, -2.399050169166204E+07,
2461253.500000000, A.D. 2026-Aug-01 00:00:00.0000, -4.396947809024647E+07, 3.699292490882365E+08, -2.316689989552064E+07,
2461260.500000000, A.D. 2026-Aug-08 00:00:00.0000, -5.459704194057252E+07, 3.701787031817669E+08, -2.232165903742719E+07,
2461267.500000000, A.D. 2026-Aug-15 00:00:00.0000, -6.517442961239498E+07, 3.700870392560410E+08, -2.145583307916003E+07,
2461274.500000000, A.D. 2026-Aug-22 00:00:00.0000, -7.569263248402494E+07, 3.696585260158225E+08, -2.057046269646242E+07,
2461281.500000000, A.D. 2026-Aug-29 00:00:00.0000, -8.614289256259273E+07, 3.688975325778584E+08, -1.966657518206529E+07,
2461288.500000000, A.D. 2026-Sep-05 00:00:00.0000, -9.651669414174998E+07, 3.678085190202066E+08, -1.874518460116662E+07,
2461295.500000000, A.D. 2026-Sep-12 00:00:00.0000, -1.068057534688221E+08, 3.663960275691405E+08, -1.780729221387950E+07,
$$EOE